ORBCOMM-X               
1 21576U 91050C   25185.91714355  .00000233  00000+0  81997-4 0  9997
2 21576  98.3427 252.1548 0004698 123.3639 236.8002 14.43273260784672
ORBCOMM FM01            
1 23545U 95017A   25186.52524038  .00004157  00000+0  43657-3 0  9996
2 23545  69.9639  28.4014 0005417 273.4634  86.5901 14.90220615615593
ORBCOMM FM02            
1 23546U 95017B   25186.05467212  .00004307  00000+0  44212-3 0  9990
2 23546  69.9652  48.9088 0006796 275.7590  84.2790 14.91105677615125
ORBCOMM FM08            
1 25112U 97084A   25185.66208637  .00000847  00000+0  27665-3 0  9995
2 25112  45.0146 283.9762 0005914 316.6892  43.3494 14.45849951443901
ORBCOMM FM10            
1 25113U 97084B   25185.71486506  .00000851  00000+0  27896-3 0  9996
2 25113  45.0158 286.1336 0005569 280.6494  79.3730 14.45638610619052
ORBCOMM FM11            
1 25114U 97084C   25185.65333066  .00000874  00000+0  28678-3 0  9996
2 25114  45.0144 287.0934 0006276 284.3079  75.7075 14.45387715444008
ORBCOMM FM12            
1 25115U 97084D   25185.75379389  .00000796  00000+0  26488-3 0  9996
2 25115  45.0150 286.3597 0005447 278.8632  81.1602 14.45408184443814
ORBCOMM FM09            
1 25116U 97084E   25186.47885243  .00000788  00000+0  26321-3 0  9995
2 25116  45.0154 283.8325 0006958 277.5166  82.4894 14.45284779444153
